#aV2024  4 29  0  0  0.00000000     288 DD+AD WGS84 FIT  NGA
## 2312  86400.00000000   300.00000000 60429 0.0000000000000
+   31     2  3  4  5  6  7  8  9 10 11 12 13 14 15 16 17 18
+         19 20 21 22 23 24 25 26 27 28 29 30 31 32  0  0  0
+          0  0  0  0  0  0  0  0  0  0  0  0  0  0  0  0  0
+          0  0  0  0  0  0  0  0  0  0  0  0  0  0  0  0  0
+          0  0  0  0  0  0  0  0  0  0  0  0  0  0  0  0  0
++         2  2  2  2  2  2  2  2  2  2  2  2  2  2  2  2  2
++         2  2  2  2  2  2  2  2  2  2  2  2  2  2  0  0  0
++         0  0  0  0  0  0  0  0  0  0  0  0  0  0  0  0  0
++         0  0  0  0  0  0  0  0  0  0  0  0  0  0  0  0  0
++         0  0  0  0  0  0  0  0  0  0  0  0  0  0  0  0  0
%c cc cc ccc ccc cccc cccc cccc cccc ccccc ccccc ccccc ccccc
%c cc cc ccc ccc cccc cccc cccc cccc ccccc ccccc ccccc ccccc
%f  0.0000000  0.000000000  0.00000000000  0.000000000000000
%f  0.0000000  0.000000000  0.00000000000  0.000000000000000
%i    0    0    0    0      0      0      0      0         0
%i    0    0    0    0      0      0      0      0         0
/*      NGA, ST. LOUIS,MO.                                  
/*   EPHEMERIS COMPUTED FROM 2 DAYS OF DATA                 
/*   EPOCHA v9 SMOOTHER                                     
/*   G2296 IERS2010 SATIGS SATAPC                           
*  2024  4 29 13 20  0.00000000
P  2  14809.717086 -21556.810188   4122.836525   -445.021595                    
V  2    212.246025   5425.268778  31515.725978      0.066179                    
P  3  12673.692576 -12488.823617 -19829.635860    337.035783                    
V  3  24733.945458   2347.266470  14558.802605      0.204041                    
P  4   5222.770906 -18600.907468 -18149.336973    349.839850                    
V  4  11195.409013  20291.862150 -17686.888923      0.086008                    
P  5 -24305.928052   5937.994686   8867.837639   -170.893836                    
V  5 -11457.035020  -2306.169392 -29188.237857     -0.013712                    
P  6 -12240.210771  -7867.943841 -22157.670012    298.410999                    
V  6  15733.962435 -23406.869550   -271.019764     -0.187796                    
P  7   1372.474612 -21906.773274  15122.273355   -117.984607                    
V  7  12154.705164 -14201.106714 -22903.876798     -0.082922                    
P  8  12070.781022  -9658.762308  21458.007356    150.423815                    
V  8  13764.612810  23891.015911   3415.797979      0.216975                    
P  9  -6181.450540 -24319.456762  -8703.143966    177.928807                    
V  9   7581.826342   8364.556916 -29071.781094      0.138598                    
P 10  19661.904523  10818.671189  14662.936560    -15.249263                    
V 10 -18129.814696    324.343474  24106.780433     -0.055075                    
P 11 -18835.417379   4806.668380 -18054.417542   -649.422386                    
V 11  12197.103185 -19528.085565 -17948.965415     -0.099274                    
P 12 -14922.139333  11486.698963 -18992.940215   -500.920990                    
V 12 -23201.014459  -4186.834960  15990.028697     -0.033858                    
P 13 -15485.884352    -39.916216  21403.275007    646.609631                    
V 13  -8563.165151 -26236.521068  -5961.193884      0.029851                    
P 14 -16071.818949 -13263.058905  16616.062197    388.370061                    
V 14  21091.968497   -323.465508  19975.610549      0.094166                    
P 15 -10893.649200  11305.928253  20915.435651    153.619601                    
V 15 -16652.876672 -22309.882461   3504.070173      0.040889                    
P 16  26182.519963   -106.899765   5382.954416   -304.573157                    
V 16   6777.335550   3336.328281 -30524.431675      0.096760                    
P 17 -12790.539361 -22780.420370  -3865.529226    709.659805                    
V 17    304.794823  -6071.996509  31537.952312     -0.018841                    
P 18  -1737.998022  21379.309900  15546.946013   -602.651604                    
V 18 -12576.082520  15358.772525 -22728.540250     -0.062264                    
P 19 -16112.923813 -17023.662036 -13033.402006    475.009950                    
V 19  -4107.892586 -15660.289351  25523.620592      0.053414                    
P 20 -26315.757926   1490.150172  -2473.263146    378.407384                    
V 20   2818.872577  -3533.811748 -31485.703391     -0.013903                    
P 21  16708.056115 -17999.962863   9122.741080    124.547624                    
V 21  -2402.521904  11483.944838  29446.008201     -0.022085                    
P 22 -21664.811398 -10841.020053  10961.367582     -6.517436                    
V 22  13617.808568   -597.756920  27664.892194     -0.054554                    
P 23   7776.603508  14331.263427  21031.202241    212.910957                    
V 23 -26558.055283    -69.031083   9689.666921      0.094937                    
P 24 -15005.745756  20995.676381   4859.865778   -464.669467                    
V 24   -391.821775  -7858.013860  30579.850353     -0.039617                    
P 25  -3953.589691  15320.326084 -21648.261943    494.770193                    
V 25 -26722.593062  -1446.770415   4179.616756      0.007534                    
P 26  25231.720830   4934.222303  -7535.497012    160.051562                    
V 26  -9229.386832   3414.085796 -28888.643135     -0.053160                    
P 27  17191.760119   3154.044490  19832.942005    -21.410183                    
V 27  10961.542957  23256.921909 -12595.070576     -0.020686                    
P 28  11305.890154  10489.351985 -21636.704476   -222.972748                    
V 28 -14480.354746  23312.160965   3733.873502     -0.156828                    
P 29   2117.171368  24161.192209 -10747.191868   -600.256855                    
V 29  -7288.590172 -11684.046717 -27949.505279      0.013464                    
P 30  -7915.706725 -15274.563233  20315.011894   -398.040377                    
V 30  15075.400021 -20777.974265 -10087.337412      0.057073                    
P 31  17524.627162   -190.911285 -20278.496328   -227.943752                    
V 31 -13467.836228  21308.599737 -11574.350007      0.000429                    
P 32  15672.929091  20574.600961  -6276.561145   -618.422239                    
V 32   1525.630736   8453.984713  30293.391643     -0.000645                    
EOF
